TEVEL2-4                
1 63213U 25052D   26068.69417973  .00020990  00000+0  70363-3 0  9998
2 63213  97.4009 325.1237 0004733  95.3468 264.8313 15.30925813 54879
STARLINK-34896          
1 66288U 25247Z   26068.61256847  .00027604  00000+0  94151-3 0  9992
2 66288  53.1588 191.6684 0001243  79.1910 280.9231 15.30171297 21020
